{
  "type": "FeatureCollection",
  "features": [
    {
      "type": "Feature",
      "properties": {
        "norad_id": 33650,
        "name": "FENGYUN 1C DEB",
        "group": "fengyun-1c-debris",
        "lat": -66.52963537754756,
        "lon": 165.618180296099,
        "alt_km": 1046.5838977366866,
        "timestamp": "2025-12-04T21:36:16.159611+00:00",
        "meta_object_name": "FENGYUN 1C DEB",
        "meta_object_id": "1999-025DEK",
        "meta_epoch": "2025-11-29T05:22:43.300128",
        "meta_mean_motion": 13.89153147,
        "meta_eccentricity": 0.01505018,
        "meta_inclination": 98.9878,
        "meta_ra_of_asc_node": 138.7642,
        "meta_arg_of_pericenter": 115.9177,
        "meta_mean_anomaly": 245.7581,
        "meta_ephemeris_type": 0,
        "meta_classification_type": "U",
        "meta_norad_cat_id": 33650,
        "meta_element_set_no": 999,
        "meta_rev_at_epoch": 68621,
        "meta_bstar": 0.00077422425,
        "meta_mean_motion_dot": 9.89e-06,
        "meta_mean_motion_ddot": 0,
        "tle_line1": "1 33650U 99025DEK 25333.22411227  .00000989  00000+0  77422-3 0  9999",
        "tle_line2": "2 33650  98.9878 138.7642 0150501 115.9177 245.7581 13.89153147686219"
      },
      "geometry": {
        "type": "Point",
        "coordinates": [
          165.618180296099,
          -66.52963537754756
        ]
      }
    },
    {
      "type": "Feature",
      "properties": {
        "norad_id": 33651,
        "name": "FENGYUN 1C DEB",
        "group": "fengyun-1c-debris",
        "lat": 41.75789039581244,
        "lon": 16.830839670664812,
        "alt_km": 749.9919041543035,
        "timestamp": "2025-12-04T21:36:16.159621+00:00",
        "meta_object_name": "FENGYUN 1C DEB",
        "meta_object_id": "1999-025DEL",
        "meta_epoch": "2025-12-04T09:34:25.167360",
        "meta_mean_motion": 14.2034714,
        "meta_eccentricity": 0.01180534,
        "meta_inclination": 98.6575,
        "meta_ra_of_asc_node": 24.1579,
        "meta_arg_of_pericenter": 77.9387,
        "meta_mean_anomaly": 283.4991,
        "meta_ephemeris_type": 0,
        "meta_classification_type": "U",
        "meta_norad_cat_id": 33651,
        "meta_element_set_no": 999,
        "meta_rev_at_epoch": 64153,
        "meta_bstar": 0.00028898742,
        "meta_mean_motion_dot": 6.21e-06,
        "meta_mean_motion_ddot": 0,
        "tle_line1": "1 33651U 99025DEL 25338.39890240  .00000621  00000+0  28899-3 0  9996",
        "tle_line2": "2 33651  98.6575  24.1579 0118053  77.9387 283.4991 14.20347140641538"
      },
      "geometry": {
        "type": "Point",
        "coordinates": [
          16.830839670664812,
          41.75789039581244
        ]
      }
    },
    {
      "type": "Feature",
      "properties": {
        "norad_id": 33655,
        "name": "FENGYUN 1C DEB",
        "group": "fengyun-1c-debris",
        "lat": 79.75874753593922,
        "lon": -15.935016204961407,
        "alt_km": 551.003092983352,
        "timestamp": "2025-12-04T21:36:16.159631+00:00",
        "meta_object_name": "FENGYUN 1C DEB",
        "meta_object_id": "1999-025DEQ",
        "meta_epoch": "2025-12-02T03:27:53.958528",
        "meta_mean_motion": 14.97046756,
        "meta_eccentricity": 0.00483741,
        "meta_inclination": 98.8068,
        "meta_ra_of_asc_node": 40.0679,
        "meta_arg_of_pericenter": 34.219,
        "meta_mean_anomaly": 326.2129,
        "meta_ephemeris_type": 0,
        "meta_classification_type": "U",
        "meta_norad_cat_id": 33655,
        "meta_element_set_no": 999,
        "meta_rev_at_epoch": 96399,
        "meta_bstar": 0.00225965,
        "meta_mean_motion_dot": 0.00026675,
        "meta_mean_motion_ddot": 0,
        "tle_line1": "1 33655U 99025DEQ 25336.14437452  .00026675  00000+0  22597-2 0  9998",
        "tle_line2": "2 33655  98.8068  40.0679 0048374  34.2190 326.2129 14.97046756963994"
      },
      "geometry": {
        "type": "Point",
        "coordinates": [
          -15.935016204961407,
          79.75874753593922
        ]
      }
    },
    {
      "type": "Feature",
      "properties": {
        "norad_id": 33656,
        "name": "FENGYUN 1C DEB",
        "group": "fengyun-1c-debris",
        "lat": 28.74241124747867,
        "lon": 156.917187309217,
        "alt_km": 822.1813471102159,
        "timestamp": "2025-12-04T21:36:16.159641+00:00",
        "meta_object_name": "FENGYUN 1C DEB",
        "meta_object_id": "1999-025DER",
        "meta_epoch": "2025-12-01T05:08:12.514272",
        "meta_mean_motion": 14.22694091,
        "meta_eccentricity": 0.0090964,
        "meta_inclination": 98.5782,
        "meta_ra_of_asc_node": 328.5792,
        "meta_arg_of_pericenter": 64.5541,
        "meta_mean_anomaly": 296.5016,
        "meta_ephemeris_type": 0,
        "meta_classification_type": "U",
        "meta_norad_cat_id": 33656,
        "meta_element_set_no": 999,
        "meta_rev_at_epoch": 62545,
        "meta_bstar": 0.00046353,
        "meta_mean_motion_dot": 1.041e-05,
        "meta_mean_motion_ddot": 0,
        "tle_line1": "1 33656U 99025DER 25335.21403373  .00001041  00000+0  46353-3 0  9998",
        "tle_line2": "2 33656  98.5782 328.5792 0090964  64.5541 296.5016 14.22694091625452"
      },
      "geometry": {
        "type": "Point",
        "coordinates": [
          156.917187309217,
          28.74241124747867
        ]
      }
    },
    {
      "type": "Feature",
      "properties": {
        "norad_id": 33658,
        "name": "FENGYUN 1C DEB",
        "group": "fengyun-1c-debris",
        "lat": 60.26013898489134,
        "lon": -30.599807560460246,
        "alt_km": 989.2958685190506,
        "timestamp": "2025-12-04T21:36:16.159651+00:00",
        "meta_object_name": "FENGYUN 1C DEB",
        "meta_object_id": "1999-025DET",
        "meta_epoch": "2025-12-02T16:07:19.695936",
        "meta_mean_motion": 13.62248134,
        "meta_eccentricity": 0.02842159,
        "meta_inclination": 99.5636,
        "meta_ra_of_asc_node": 130.05,
        "meta_arg_of_pericenter": 206.7255,
        "meta_mean_anomaly": 151.8999,
        "meta_ephemeris_type": 0,
        "meta_classification_type": "U",
        "meta_norad_cat_id": 33658,
        "meta_element_set_no": 999,
        "meta_rev_at_epoch": 58002,
        "meta_bstar": 0.0047533349,
        "meta_mean_motion_dot": 4.778e-05,
        "meta_mean_motion_ddot": 0,
        "tle_line1": "1 33658U 99025DET 25336.67175574  .00004778  00000+0  47533-2 0  9990",
        "tle_line2": "2 33658  99.5636 130.0500 0284215 206.7255 151.8999 13.62248134580024"
      },
      "geometry": {
        "type": "Point",
        "coordinates": [
          -30.599807560460246,
          60.26013898489134
        ]
      }
    },
    {
      "type": "Feature",
      "properties": {
        "norad_id": 33660,
        "name": "FENGYUN 1C DEB",
        "group": "fengyun-1c-debris",
        "lat": -34.437428969458736,
        "lon": -103.39733487002708,
        "alt_km": 884.5732698988295,
        "timestamp": "2025-12-04T21:36:16.159661+00:00",
        "meta_object_name": "FENGYUN 1C DEB",
        "meta_object_id": "1999-025DEV",
        "meta_epoch": "2025-12-04T12:17:22.477344",
        "meta_mean_motion": 13.91753868,
        "meta_eccentricity": 0.0110041,
        "meta_inclination": 98.6562,
        "meta_ra_of_asc_node": 250.2448,
        "meta_arg_of_pericenter": 269.0022,
        "meta_mean_anomaly": 271.6091,
        "meta_ephemeris_type": 0,
        "meta_classification_type": "U",
        "meta_norad_cat_id": 33660,
        "meta_element_set_no": 999,
        "meta_rev_at_epoch": 90949,
        "meta_bstar": 0.0010520354,
        "meta_mean_motion_dot": 1.364e-05,
        "meta_mean_motion_ddot": 0,
        "tle_line1": "1 33660U 99025DEV 25338.51206571  .00001364  00000+0  10520-2 0  9994",
        "tle_line2": "2 33660  98.6562 250.2448 0110041 269.0022 271.6091 13.91753868909497"
      },
      "geometry": {
        "type": "Point",
        "coordinates": [
          -103.39733487002708,
          -34.437428969458736
        ]
      }
    },
    {
      "type": "Feature",
      "properties": {
        "norad_id": 33663,
        "name": "FENGYUN 1C DEB",
        "group": "fengyun-1c-debris",
        "lat": -53.458299225242435,
        "lon": 137.33176538193908,
        "alt_km": 752.4099647161602,
        "timestamp": "2025-12-04T21:36:16.159671+00:00",
        "meta_object_name": "FENGYUN 1C DEB",
        "meta_object_id": "1999-025DEY",
        "meta_epoch": "2025-12-03T05:05:31.392960",
        "meta_mean_motion": 14.61049241,
        "meta_eccentricity": 0.0083574,
        "meta_inclination": 98.8831,
        "meta_ra_of_asc_node": 327.7042,
        "meta_arg_of_pericenter": 41.7093,
        "meta_mean_anomaly": 319.0438,
        "meta_ephemeris_type": 0,
        "meta_classification_type": "U",
        "meta_norad_cat_id": 33663,
        "meta_element_set_no": 999,
        "meta_rev_at_epoch": 64063,
        "meta_bstar": 0.0084154,
        "meta_mean_motion_dot": 0.00043621,
        "meta_mean_motion_ddot": 0,
        "tle_line1": "1 33663U 99025DEY 25337.21216890  .00043621  00000+0  84154-2 0  9994",
        "tle_line2": "2 33663  98.8831 327.7042 0083574  41.7093 319.0438 14.61049241640635"
      },
      "geometry": {
        "type": "Point",
        "coordinates": [
          137.33176538193908,
          -53.458299225242435
        ]
      }
    }
  ]
}